{
  "type": "FeatureCollection",
  "features": [
    {
      "type": "Feature",
      "properties": {
        "norad_id": 66652,
        "name": "2025-274C",
        "group": "last-30-days",
        "lat": 38.257071953308305,
        "lon": 90.96960480089281,
        "alt_km": 595.9604096486873,
        "timestamp": "2025-12-03T10:52:56.223523+00:00",
        "meta_object_name": "2025-274C",
        "meta_object_id": "2025-274C",
        "meta_epoch": "2025-12-02T18:09:10.375776",
        "meta_mean_motion": 14.91818929,
        "meta_eccentricity": 0.0010526,
        "meta_inclination": 97.738,
        "meta_ra_of_asc_node": 264.1303,
        "meta_arg_of_pericenter": 296.1312,
        "meta_mean_anomaly": 63.8824,
        "meta_ephemeris_type": 0,
        "meta_classification_type": "U",
        "meta_norad_cat_id": 66652,
        "meta_element_set_no": 999,
        "meta_rev_at_epoch": 91,
        "meta_bstar": 0.00039654,
        "meta_mean_motion_dot": 3.95e-05,
        "meta_mean_motion_ddot": 0,
        "tle_line1": "1 66652U 25274C   25336.75637009  .00003950  00000+0  39654-3 0  9997",
        "tle_line2": "2 66652  97.7380 264.1303 0010526 296.1312  63.8824 14.91818929   911"
      },
      "geometry": {
        "type": "Point",
        "coordinates": [
          90.96960480089281,
          38.257071953308305
        ]
      }
    },
    {
      "type": "Feature",
      "properties": {
        "norad_id": 66653,
        "name": "2025-274D",
        "group": "last-30-days",
        "lat": 38.053499543463424,
        "lon": 90.92462766070075,
        "alt_km": 596.2248314878634,
        "timestamp": "2025-12-03T10:52:56.223535+00:00",
        "meta_object_name": "2025-274D",
        "meta_object_id": "2025-274D",
        "meta_epoch": "2025-12-02T18:09:06.887808",
        "meta_mean_motion": 14.91826027,
        "meta_eccentricity": 0.0011431,
        "meta_inclination": 97.738,
        "meta_ra_of_asc_node": 264.1303,
        "meta_arg_of_pericenter": 291.8749,
        "meta_mean_anomaly": 68.1253,
        "meta_ephemeris_type": 0,
        "meta_classification_type": "U",
        "meta_norad_cat_id": 66653,
        "meta_element_set_no": 999,
        "meta_rev_at_epoch": 91,
        "meta_bstar": 0.00033589,
        "meta_mean_motion_dot": 3.338e-05,
        "meta_mean_motion_ddot": 0,
        "tle_line1": "1 66653U 25274D   25336.75632972  .00003338  00000+0  33589-3 0  9993",
        "tle_line2": "2 66653  97.7380 264.1303 0011431 291.8749  68.1253 14.91826027   916"
      },
      "geometry": {
        "type": "Point",
        "coordinates": [
          90.92462766070075,
          38.053499543463424
        ]
      }
    },
    {
      "type": "Feature",
      "properties": {
        "norad_id": 66654,
        "name": "JACK E",
        "group": "last-30-days",
        "lat": 34.19918810341193,
        "lon": 90.11847107234463,
        "alt_km": 596.3655095007352,
        "timestamp": "2025-12-03T10:52:56.223546+00:00",
        "meta_object_name": "JACK E",
        "meta_object_id": "2025-274E",
        "meta_epoch": "2025-12-03T00:34:28.522272",
        "meta_mean_motion": 14.91992623,
        "meta_eccentricity": 0.0011849,
        "meta_inclination": 97.7383,
        "meta_ra_of_asc_node": 264.3946,
        "meta_arg_of_pericenter": 292.3839,
        "meta_mean_anomaly": 67.6124,
        "meta_ephemeris_type": 0,
        "meta_classification_type": "U",
        "meta_norad_cat_id": 66654,
        "meta_element_set_no": 999,
        "meta_rev_at_epoch": 95,
        "meta_bstar": 0.00045926,
        "meta_mean_motion_dot": 4.605e-05,
        "meta_mean_motion_ddot": 0,
        "tle_line1": "1 66654U 25274E   25337.02394123  .00004605  00000+0  45926-3 0  9994",
        "tle_line2": "2 66654  97.7383 264.3946 0011849 292.3839  67.6124 14.91992623   955"
      },
      "geometry": {
        "type": "Point",
        "coordinates": [
          90.11847107234463,
          34.19918810341193
        ]
      }
    },
    {
      "type": "Feature",
      "properties": {
        "norad_id": 66655,
        "name": "2025-274F",
        "group": "last-30-days",
        "lat": 30.767320907136703,
        "lon": 89.45923322840193,
        "alt_km": 594.798851991708,
        "timestamp": "2025-12-03T10:52:56.223556+00:00",
        "meta_object_name": "2025-274F",
        "meta_object_id": "2025-274F",
        "meta_epoch": "2025-12-02T19:43:59.472768",
        "meta_mean_motion": 14.92215441,
        "meta_eccentricity": 0.0007841,
        "meta_inclination": 97.7354,
        "meta_ra_of_asc_node": 264.1978,
        "meta_arg_of_pericenter": 321.8361,
        "meta_mean_anomaly": 38.2302,
        "meta_ephemeris_type": 0,
        "meta_classification_type": "U",
        "meta_norad_cat_id": 66655,
        "meta_element_set_no": 999,
        "meta_rev_at_epoch": 92,
        "meta_bstar": 0.00045936,
        "meta_mean_motion_dot": 4.629e-05,
        "meta_mean_motion_ddot": 0,
        "tle_line1": "1 66655U 25274F   25336.82221612  .00004629  00000+0  45936-3 0  9991",
        "tle_line2": "2 66655  97.7354 264.1978 0007841 321.8361  38.2302 14.92215441   928"
      },
      "geometry": {
        "type": "Point",
        "coordinates": [
          89.45923322840193,
          30.767320907136703
        ]
      }
    },
    {
      "type": "Feature",
      "properties": {
        "norad_id": 66656,
        "name": "2025-274G",
        "group": "last-30-days",
        "lat": 29.901557024230925,
        "lon": 89.30283328422334,
        "alt_km": 596.6282882825235,
        "timestamp": "2025-12-03T10:52:56.223567+00:00",
        "meta_object_name": "2025-274G",
        "meta_object_id": "2025-274G",
        "meta_epoch": "2025-12-03T00:33:22.809024",
        "meta_mean_motion": 14.92174032,
        "meta_eccentricity": 0.0012531,
        "meta_inclination": 97.7381,
        "meta_ra_of_asc_node": 264.3955,
        "meta_arg_of_pericenter": 293.9276,
        "meta_mean_anomaly": 66.063,
        "meta_ephemeris_type": 0,
        "meta_classification_type": "U",
        "meta_norad_cat_id": 66656,
        "meta_element_set_no": 999,
        "meta_rev_at_epoch": 95,
        "meta_bstar": 0.00050145,
        "meta_mean_motion_dot": 5.058e-05,
        "meta_mean_motion_ddot": 0,
        "tle_line1": "1 66656U 25274G   25337.02318066  .00005058  00000+0  50145-3 0  9990",
        "tle_line2": "2 66656  97.7381 264.3955 0012531 293.9276  66.0630 14.92174032   958"
      },
      "geometry": {
        "type": "Point",
        "coordinates": [
          89.30283328422334,
          29.901557024230925
        ]
      }
    },
    {
      "type": "Feature",
      "properties": {
        "norad_id": 66657,
        "name": "SPIRONE",
        "group": "last-30-days",
        "lat": 25.562331883007356,
        "lon": 88.5488064347136,
        "alt_km": 596.9866072131417,
        "timestamp": "2025-12-03T10:52:56.223577+00:00",
        "meta_object_name": "SPIRONE",
        "meta_object_id": "2025-274H",
        "meta_epoch": "2025-12-03T02:08:51.041760",
        "meta_mean_motion": 14.923554,
        "meta_eccentricity": 0.0011144,
        "meta_inclination": 97.7379,
        "meta_ra_of_asc_node": 264.4623,
        "meta_arg_of_pericenter": 312.8269,
        "meta_mean_anomaly": 47.2013,
        "meta_ephemeris_type": 0,
        "meta_classification_type": "U",
        "meta_norad_cat_id": 66657,
        "meta_element_set_no": 999,
        "meta_rev_at_epoch": 96,
        "meta_bstar": 0.00050804,
        "meta_mean_motion_dot": 5.147e-05,
        "meta_mean_motion_ddot": 0,
        "tle_line1": "1 66657U 25274H   25337.08947965  .00005147  00000+0  50804-3 0  9994",
        "tle_line2": "2 66657  97.7379 264.4623 0011144 312.8269  47.2013 14.92355400   968"
      },
      "geometry": {
        "type": "Point",
        "coordinates": [
          88.5488064347136,
          25.562331883007356
        ]
      }
    },
    {
      "type": "Feature",
      "properties": {
        "norad_id": 66658,
        "name": "2025-274J",
        "group": "last-30-days",
        "lat": 21.325304022290815,
        "lon": 87.86420628524792,
        "alt_km": 597.4490246026226,
        "timestamp": "2025-12-03T10:52:56.223589+00:00",
        "meta_object_name": "2025-274J",
        "meta_object_id": "2025-274J",
        "meta_epoch": "2025-12-02T18:05:03.706368",
        "meta_mean_motion": 14.92526864,
        "meta_eccentricity": 0.0011783,
        "meta_inclination": 97.7377,
        "meta_ra_of_asc_node": 264.1337,
        "meta_arg_of_pericenter": 316.7606,
        "meta_mean_anomaly": 43.2687,
        "meta_ephemeris_type": 0,
        "meta_classification_type": "U",
        "meta_norad_cat_id": 66658,
        "meta_element_set_no": 999,
        "meta_rev_at_epoch": 91,
        "meta_bstar": 0.00048001,
        "meta_mean_motion_dot": 4.881e-05,
        "meta_mean_motion_ddot": 0,
        "tle_line1": "1 66658U 25274J   25336.75351512  .00004881  00000+0  48001-3 0  9995",
        "tle_line2": "2 66658  97.7377 264.1337 0011783 316.7606  43.2687 14.92526864   915"
      },
      "geometry": {
        "type": "Point",
        "coordinates": [
          87.86420628524792,
          21.325304022290815
        ]
      }
    }
  ]
}